QIANFAN-1               
1 60379U 24140A   25196.56290477  .00000100  00000+0  13653-3 0  9990
2 60379  88.9842 314.7890 0015477 289.9679  69.9805 13.50951144 47070
QIANFAN-2               
1 60380U 24140B   25196.59176452  .00000115  00000+0  15934-3 0  9991
2 60380  88.9828 314.6463 0010900 257.3666 102.6266 13.50957601 47139
QIANFAN-3               
1 60381U 24140C   25196.59991184  .00000105  00000+0  14483-3 0  9996
2 60381  88.9821 314.7890 0011892 272.3074  87.6715 13.50955660 47043
QIANFAN-4               
1 60382U 24140D   25196.57525069  .00000122  00000+0  17069-3 0  9992
2 60382  88.9846 314.6517 0011094 260.5295  99.4602 13.50951149 47161
QIANFAN-5               
1 60383U 24140E   25196.62471425  .00000108  00000+0  14939-3 0  9992
2 60383  88.9821 314.8124 0013140 285.4206  74.5494 13.50954268 47037
QIANFAN-6               
1 60384U 24140F   25196.57109509  .00000119  00000+0  16639-3 0  9999
2 60384  88.9847 314.5241 0011147 267.6054  92.3821 13.50955709 47225
QIANFAN-7               
1 60385U 24140G   25196.60224217  .00000470  00000+0  18512-3 0  9990
2 60385  88.9850 311.3283 0015884 166.1880 193.9752 14.27476365 48978
QIANFAN-8               
1 60386U 24140H   25196.57944693  .00000125  00000+0  17590-3 0  9996
2 60386  88.9849 314.7580 0014584 270.6443  89.3037 13.50954887 47075
